CCSDS_OMM_VERS = 2.0
CREATION_DATE  = 
ORIGINATOR     = 

OBJECT_NAME    = SOYUZ-MS 28
OBJECT_ID      = 2025-275A
CENTER_NAME    = EARTH
REF_FRAME      = TEME
TIME_SYSTEM    = UTC
MEAN_ELEMENT_THEORY = SGP/SGP4

EPOCH          = 2026-01-02T13:33:42.410016
MEAN_MOTION    = 15.49039326
ECCENTRICITY   = .00075301
INCLINATION    = 51.6329
RA_OF_ASC_NODE = 39.3546
ARG_OF_PERICENTER = 331.9903
MEAN_ANOMALY   = 28.0679

EPHEMERIS_TYPE = 0
CLASSIFICATION_TYPE = U
NORAD_CAT_ID   = 66664
ELEMENT_SET_NO = 999
REV_AT_EPOCH   = 128
BSTAR          = .29290778E-3
MEAN_MOTION_DOT = .15753E-3
MEAN_MOTION_DDOT = 0

CCSDS_OMM_VERS = 2.0
CREATION_DATE  = 
ORIGINATOR     = 

OBJECT_NAME    = 1998-067XS
OBJECT_ID      = 1998-067XS
CENTER_NAME    = EARTH
REF_FRAME      = TEME
TIME_SYSTEM    = UTC
MEAN_ELEMENT_THEORY = SGP/SGP4

EPOCH          = 2026-01-02T08:17:41.028864
MEAN_MOTION    = 15.51815107
ECCENTRICITY   = .00024756
INCLINATION    = 51.6322
RA_OF_ASC_NODE = 40.1398
ARG_OF_PERICENTER = 312.2707
MEAN_ANOMALY   = 47.8073

EPHEMERIS_TYPE = 0
CLASSIFICATION_TYPE = U
NORAD_CAT_ID   = 66906
ELEMENT_SET_NO = 999
REV_AT_EPOCH   = 481
BSTAR          = .61956089E-3
MEAN_MOTION_DOT = .37434E-3
MEAN_MOTION_DDOT = 0

CCSDS_OMM_VERS = 2.0
CREATION_DATE  = 
ORIGINATOR     = 

OBJECT_NAME    = 1998-067XT
OBJECT_ID      = 1998-067XT
CENTER_NAME    = EARTH
REF_FRAME      = TEME
TIME_SYSTEM    = UTC
MEAN_ELEMENT_THEORY = SGP/SGP4

EPOCH          = 2026-01-02T09:15:00.543744
MEAN_MOTION    = 15.54439264
ECCENTRICITY   = .00038664
INCLINATION    = 51.6313
RA_OF_ASC_NODE = 39.6563
ARG_OF_PERICENTER = 354.2488
MEAN_ANOMALY   = 5.8458

EPHEMERIS_TYPE = 0
CLASSIFICATION_TYPE = U
NORAD_CAT_ID   = 66907
ELEMENT_SET_NO = 999
REV_AT_EPOCH   = 482
BSTAR          = .1502475E-2
MEAN_MOTION_DOT = .101426E-2
MEAN_MOTION_DDOT = 0

CCSDS_OMM_VERS = 2.0
CREATION_DATE  = 
ORIGINATOR     = 

OBJECT_NAME    = 1998-067XU
OBJECT_ID      = 1998-067XU
CENTER_NAME    = EARTH
REF_FRAME      = TEME
TIME_SYSTEM    = UTC
MEAN_ELEMENT_THEORY = SGP/SGP4

EPOCH          = 2026-01-02T09:13:26.267520
MEAN_MOTION    = 15.54401853
ECCENTRICITY   = .00039121
INCLINATION    = 51.6302
RA_OF_ASC_NODE = 39.6478
ARG_OF_PERICENTER = 349.5854
MEAN_ANOMALY   = 10.5055

EPHEMERIS_TYPE = 0
CLASSIFICATION_TYPE = U
NORAD_CAT_ID   = 66908
ELEMENT_SET_NO = 999
REV_AT_EPOCH   = 482
BSTAR          = .15029231E-2
MEAN_MOTION_DOT = .101317E-2
MEAN_MOTION_DDOT = 0

CCSDS_OMM_VERS = 2.0
CREATION_DATE  = 
ORIGINATOR     = 

OBJECT_NAME    = SILVERSAT
OBJECT_ID      = 1998-067XV
CENTER_NAME    = EARTH
REF_FRAME      = TEME
TIME_SYSTEM    = UTC
MEAN_ELEMENT_THEORY = SGP/SGP4

EPOCH          = 2026-01-02T09:08:08.612736
MEAN_MOTION    = 15.54908343
ECCENTRICITY   = .00039944
INCLINATION    = 51.6305
RA_OF_ASC_NODE = 39.6237
ARG_OF_PERICENTER = 357.3938
MEAN_ANOMALY   = 2.7031

EPHEMERIS_TYPE = 0
CLASSIFICATION_TYPE = U
NORAD_CAT_ID   = 66909
ELEMENT_SET_NO = 999
REV_AT_EPOCH   = 482
BSTAR          = .16346237E-2
MEAN_MOTION_DOT = .112467E-2
MEAN_MOTION_DDOT = 0

CCSDS_OMM_VERS = 2.0
CREATION_DATE  = 
ORIGINATOR     = 

OBJECT_NAME    = 1998-067XW
OBJECT_ID      = 1998-067XW
CENTER_NAME    = EARTH
REF_FRAME      = TEME
TIME_SYSTEM    = UTC
MEAN_ELEMENT_THEORY = SGP/SGP4

EPOCH          = 2026-01-02T15:17:07.154304
MEAN_MOTION    = 15.54745993
ECCENTRICITY   = .00032173
INCLINATION    = 51.6309
RA_OF_ASC_NODE = 38.3343
ARG_OF_PERICENTER = 331.0556
MEAN_ANOMALY   = 29.0256

EPHEMERIS_TYPE = 0
CLASSIFICATION_TYPE = U
NORAD_CAT_ID   = 66910
ELEMENT_SET_NO = 999
REV_AT_EPOCH   = 486
BSTAR          = .15002764E-2
MEAN_MOTION_DOT = .102429E-2
MEAN_MOTION_DDOT = 0

CCSDS_OMM_VERS = 2.0
CREATION_DATE  = 
ORIGINATOR     = 

OBJECT_NAME    = 1998-067XX
OBJECT_ID      = 1998-067XX
CENTER_NAME    = EARTH
REF_FRAME      = TEME
TIME_SYSTEM    = UTC
MEAN_ELEMENT_THEORY = SGP/SGP4

EPOCH          = 2026-01-02T19:43:52.071744
MEAN_MOTION    = 15.55614489
ECCENTRICITY   = .0003124
INCLINATION    = 51.6316
RA_OF_ASC_NODE = 37.3219
ARG_OF_PERICENTER = 346.6622
MEAN_ANOMALY   = 13.4286

EPHEMERIS_TYPE = 0
CLASSIFICATION_TYPE = U
NORAD_CAT_ID   = 66911
ELEMENT_SET_NO = 999
REV_AT_EPOCH   = 488
BSTAR          = .17634E-2
MEAN_MOTION_DOT = .124751E-2
MEAN_MOTION_DDOT = 0

CCSDS_OMM_VERS = 2.0
CREATION_DATE  = 
ORIGINATOR     = 

OBJECT_NAME    = 1998-067XY
OBJECT_ID      = 1998-067XY
CENTER_NAME    = EARTH
REF_FRAME      = TEME
TIME_SYSTEM    = UTC
MEAN_ELEMENT_THEORY = SGP/SGP4

EPOCH          = 2026-01-02T09:27:53.596512
MEAN_MOTION    = 15.53471652
ECCENTRICITY   = .00037025
INCLINATION    = 51.6316
RA_OF_ASC_NODE = 39.7160
ARG_OF_PERICENTER = 342.0500
MEAN_ANOMALY   = 18.0359

EPHEMERIS_TYPE = 0
CLASSIFICATION_TYPE = U
NORAD_CAT_ID   = 66912
ELEMENT_SET_NO = 999
REV_AT_EPOCH   = 481
BSTAR          = .11812572E-2
MEAN_MOTION_DOT = .76626E-3
MEAN_MOTION_DDOT = 0

